{"type": "FeatureCollection", "features": [ {"type": "Feature", "properties": {"norad_id": 33153, "name": "INTELSAT 25 (IS-25)", "group": "intelsat", "lat": -1.8130188016531088, "lon": -44.8359118331543, "alt_km": 35771.379752214554, "timestamp": "2025-12-24T16:52:41.168650+00:00", "meta": {"OBJECT_NAME": "INTELSAT 25 (IS-25)", "OBJECT_ID": "2008-034A", "EPOCH": "2025-12-24T04:08:38.441760", "MEAN_MOTION": 1.00272349, "ECCENTRICITY": 0.00048767, "INCLINATION": 2.2553, "RA_OF_ASC_NODE": 82.5273, "ARG_OF_PERICENTER": 188.4652, "MEAN_ANOMALY": 212.6224, "EPHEMERIS_TYPE": 0, "CLASSIFICATION_TYPE": "U", "NORAD_CAT_ID": 33153, "ELEMENT_SET_NO": 999, "REV_AT_EPOCH": 6394, "BSTAR": 0, "MEAN_MOTION_DOT": -2.04e-06, "MEAN_MOTION_DDOT": 0}, "tle": {"line1": "1 33153U 08034A   25358.17266715 -.00000204  00000+0  00000+0 0  9993", "line2": "2 33153   2.2553  82.5273 0004876 188.4652 212.6224  1.00272349 63949"}}, "geometry": {"type": "Point", "coordinates": [-44.8359118331543, -1.8130188016531088]}}, {"type": "Feature", "properties": {"norad_id": 33376, "name": "GALAXY 19 (G-19)", "group": "intelsat", "lat": -0.02792335186734013, "lon": -110.38458052628036, "alt_km": 35776.73928009644, "timestamp": "2025-12-24T16:52:41.168664+00:00", "meta": {"OBJECT_NAME": "GALAXY 19 (G-19)", "OBJECT_ID": "2008-045A", "EPOCH": "2025-12-24T06:30:11.593728", "MEAN_MOTION": 1.00270753, "ECCENTRICITY": 0.00026821, "INCLINATION": 0.0435, "RA_OF_ASC_NODE": 265.016, "ARG_OF_PERICENTER": 16.4739, "MEAN_ANOMALY": 172.1006, "EPHEMERIS_TYPE": 0, "CLASSIFICATION_TYPE": "U", "NORAD_CAT_ID": 33376, "ELEMENT_SET_NO": 999, "REV_AT_EPOCH": 6315, "BSTAR": 0, "MEAN_MOTION_DOT": -1.18e-06, "MEAN_MOTION_DDOT": 0}, "tle": {"line1": "1 33376U 08045A   25358.27096752 -.00000118  00000+0  00000+0 0  9999", "line2": "2 33376   0.0435 265.0160 0002682  16.4739 172.1006  1.00270753 63151"}}, "geometry": {"type": "Point", "coordinates": [-110.38458052628036, -0.02792335186734013]}}, {"type": "Feature", "properties": {"norad_id": 35493, "name": "FM-5", "group": "intelsat", "lat": -0.02222013053194152, "lon": -99.49523867266765, "alt_km": 35787.46462790442, "timestamp": "2025-12-24T16:52:41.168676+00:00", "meta": {"OBJECT_NAME": "FM-5", "OBJECT_ID": "2009-034A", "EPOCH": "2025-12-24T04:58:56.774784", "MEAN_MOTION": 1.00270056, "ECCENTRICITY": 9.316e-05, "INCLINATION": 0.0206, "RA_OF_ASC_NODE": 292.5681, "ARG_OF_PERICENTER": 225.4257, "MEAN_ANOMALY": 283.5867, "EPHEMERIS_TYPE": 0, "CLASSIFICATION_TYPE": "U", "NORAD_CAT_ID": 35493, "ELEMENT_SET_NO": 999, "REV_AT_EPOCH": 4488, "BSTAR": 0, "MEAN_MOTION_DOT": -1.79e-06, "MEAN_MOTION_DDOT": 0}, "tle": {"line1": "1 35493U 09034A   25358.20760156 -.00000179  00000+0  00000+0 0  9996", "line2": "2 35493   0.0206 292.5681 0000931 225.4257 283.5867  1.00270056 44881"}}, "geometry": {"type": "Point", "coordinates": [-99.49523867266765, -0.02222013053194152]}}, {"type": "Feature", "properties": {"norad_id": 36097, "name": "INTELSAT 14 (IS-14)", "group": "intelsat", "lat": -0.0322374242391331, "lon": -58.367395169332376, "alt_km": 35776.24433700085, "timestamp": "2025-12-24T16:52:41.168688+00:00", "meta": {"OBJECT_NAME": "INTELSAT 14 (IS-14)", "OBJECT_ID": "2009-064A", "EPOCH": "2025-12-24T04:24:38.589408", "MEAN_MOTION": 1.00269199, "ECCENTRICITY": 0.00026128, "INCLINATION": 0.0125, "RA_OF_ASC_NODE": 9.068, "ARG_OF_PERICENTER": 276.4892, "MEAN_ANOMALY": 188.5557, "EPHEMERIS_TYPE": 0, "CLASSIFICATION_TYPE": "U", "NORAD_CAT_ID": 36097, "ELEMENT_SET_NO": 999, "REV_AT_EPOCH": 5885, "BSTAR": 0, "MEAN_MOTION_DOT": -2.53e-06, "MEAN_MOTION_DDOT": 0}, "tle": {"line1": "1 36097U 09064A   25358.18377997 -.00000253  00000+0  00000+0 0  9997", "line2": "2 36097   0.0125   9.0680 0002612 276.4892 188.5557  1.00269199 58859"}}, "geometry": {"type": "Point", "coordinates": [-58.367395169332376, -0.0322374242391331]}}, {"type": "Feature", "properties": {"norad_id": 36106, "name": "INTELSAT 15 (IS-15)", "group": "intelsat", "lat": 0.03150322259806637, "lon": 71.81198210620032, "alt_km": 35794.48146989802, "timestamp": "2025-12-24T16:52:41.168700+00:00", "meta": {"OBJECT_NAME": "INTELSAT 15 (IS-15)", "OBJECT_ID": "2009-067A", "EPOCH": "2025-12-23T23:48:35.582400", "MEAN_MOTION": 1.00270914, "ECCENTRICITY": 0.00022897, "INCLINATION": 0.0165, "RA_OF_ASC_NODE": 21.0917, "ARG_OF_PERICENTER": 263.9004, "MEAN_ANOMALY": 250.09, "EPHEMERIS_TYPE": 0, "CLASSIFICATION_TYPE": "U", "NORAD_CAT_ID": 36106, "ELEMENT_SET_NO": 999, "REV_AT_EPOCH": 3947, "BSTAR": 0, "MEAN_MOTION_DOT": -1.64e-06, "MEAN_MOTION_DDOT": 0}, "tle": {"line1": "1 36106U 09067A   25357.99207850 -.00000164  00000+0  00000+0 0  9990", "line2": "2 36106   0.0165  21.0917 0002289 263.9004 250.0900  1.00270914 39478"}}, "geometry": {"type": "Point", "coordinates": [71.81198210620032, 0.03150322259806637]}}, {"type": "Feature", "properties": {"norad_id": 36131, "name": "DIRECTV 12", "group": "intelsat", "lat": -0.003557491208445355, "lon": -116.07893004170816, "alt_km": 35786.078456966265, "timestamp": "2025-12-24T16:52:41.168713+00:00", "meta": {"OBJECT_NAME": "DIRECTV 12", "OBJECT_ID": "2009-075A", "EPOCH": "2025-12-24T05:45:47.302848", "MEAN_MOTION": 1.00271327, "ECCENTRICITY": 4.374e-05, "INCLINATION": 0.0191, "RA_OF_ASC_NODE": 113.367, "ARG_OF_PERICENTER": 216.4443, "MEAN_ANOMALY": 106.941, "EPHEMERIS_TYPE": 0, "CLASSIFICATION_TYPE": "U", "NORAD_CAT_ID": 36131, "ELEMENT_SET_NO": 999, "REV_AT_EPOCH": 4479, "BSTAR": 0, "MEAN_MOTION_DOT": -8.3e-07, "MEAN_MOTION_DDOT": 0}, "tle": {"line1": "1 36131U 09075A   25358.24013082 -.00000083  00000+0  00000+0 0  9998", "line2": "2 36131   0.0191 113.3670 0000437 216.4443 106.9410  1.00271327 44794"}}, "geometry": {"type": "Point", "coordinates": [-116.07893004170816, -0.003557491208445355]}}, {"type": "Feature", "properties": {"norad_id": 36397, "name": "INTELSAT 16 (IS-16)", "group": "intelsat", "lat": -0.02578681748614168, "lon": -89.55189468583332, "alt_km": 35777.611583596794, "timestamp": "2025-12-24T16:52:41.168725+00:00", "meta": {"OBJECT_NAME": "INTELSAT 16 (IS-16)", "OBJECT_ID": "2010-006A", "EPOCH": "2025-12-24T05:27:09.190080", "MEAN_MOTION": 1.00271444, "ECCENTRICITY": 0.00020354, "INCLINATION": 0.0102, "RA_OF_ASC_NODE": 330.7873, "ARG_OF_PERICENTER": 301.5522, "MEAN_ANOMALY": 186.2641, "EPHEMERIS_TYPE": 0, "CLASSIFICATION_TYPE": "U", "NORAD_CAT_ID": 36397, "ELEMENT_SET_NO": 999, "REV_AT_EPOCH": 5790, "BSTAR": 0, "MEAN_MOTION_DOT": -2.24e-06, "MEAN_MOTION_DDOT": 0}, "tle": {"line1": "1 36397U 10006A   25358.22718970 -.00000224  00000+0  00000+0 0  9991", "line2": "2 36397   0.0102 330.7873 0002035 301.5522 186.2641  1.00271444 57904"}}, "geometry": {"type": "Point", "coordinates": [-89.55189468583332, -0.02578681748614168]}}, {"type": "Feature", "properties": {"norad_id": 37185, "name": "XM-5", "group": "intelsat", "lat": -0.05257845630798147, "lon": -128.53863866882728, "alt_km": 35785.70963507151, "timestamp": "2025-12-24T16:52:41.168738+00:00", "meta": {"OBJECT_NAME": "XM-5", "OBJECT_ID": "2010-053A", "EPOCH": "2025-12-24T05:59:38.935680", "MEAN_MOTION": 1.0026917, "ECCENTRICITY": 0.00020949, "INCLINATION": 0.0667, "RA_OF_ASC_NODE": 269.9385, "ARG_OF_PERICENTER": 238.903, "MEAN_ANOMALY": 278.9005, "EPHEMERIS_TYPE": 0, "CLASSIFICATION_TYPE": "U", "NORAD_CAT_ID": 37185, "ELEMENT_SET_NO": 999, "REV_AT_EPOCH": 5572, "BSTAR": 0, "MEAN_MOTION_DOT": -2e-08, "MEAN_MOTION_DDOT": 0}, "tle": {"line1": "1 37185U 10053A   25358.24975620 -.00000002  00000+0  00000+0 0  9992", "line2": "2 37185   0.0667 269.9385 0002094 238.9030 278.9005  1.00269170 55723"}}, "geometry": {"type": "Point", "coordinates": [-128.53863866882728, -0.05257845630798147]}}, {"type": "Feature", "properties": {"norad_id": 37238, "name": "INTELSAT 17 (IS-17)", "group": "intelsat", "lat": 0.016659954668049665, "lon": 52.64911353681894, "alt_km": 35793.59505667654, "timestamp": "2025-12-24T16:52:41.168751+00:00", "meta": {"OBJECT_NAME": "INTELSAT 17 (IS-17)", "OBJECT_ID": "2010-065B", "EPOCH": "2025-12-24T04:51:15.028128", "MEAN_MOTION": 1.00271499, "ECCENTRICITY": 0.00026814, "INCLINATION": 0.0038, "RA_OF_ASC_NODE": 327.5432, "ARG_OF_PERICENTER": 314.0867, "MEAN_ANOMALY": 310.1501, "EPHEMERIS_TYPE": 0, "CLASSIFICATION_TYPE": "U", "NORAD_CAT_ID": 37238, "ELEMENT_SET_NO": 999, "REV_AT_EPOCH": 5149, "BSTAR": 0, "MEAN_MOTION_DOT": 2e-07, "MEAN_MOTION_DDOT": 0}, "tle": {"line1": "1 37238U 10065B   25358.20225727  .00000020  00000+0  00000+0 0  9995", "line2": "2 37238   0.0038 327.5432 0002681 314.0867 310.1501  1.00271499 51491"}}, "geometry": {"type": "Point", "coordinates": [52.64911353681894, 0.016659954668049665]}}, {"type": "Feature", "properties": {"norad_id": 37392, "name": "INTELSAT 28 (IS-28)", "group": "intelsat", "lat": -1.0561376804314684, "lon": -45.04325772358694, "alt_km": 35774.688528536826, "timestamp": "2025-12-24T16:52:41.168763+00:00", "meta": {"OBJECT_NAME": "INTELSAT 28 (IS-28)", "OBJECT_ID": "2011-016A", "EPOCH": "2025-12-24T04:08:38.441760", "MEAN_MOTION": 1.00272343, "ECCENTRICITY": 0.00037045, "INCLINATION": 1.3523, "RA_OF_ASC_NODE": 84.9324, "ARG_OF_PERICENTER": 186.6797, "MEAN_ANOMALY": 211.7927, "EPHEMERIS_TYPE": 0, "CLASSIFICATION_TYPE": "U", "NORAD_CAT_ID": 37392, "ELEMENT_SET_NO": 999, "REV_AT_EPOCH": 5153, "BSTAR": 0, "MEAN_MOTION_DOT": -2.04e-06, "MEAN_MOTION_DDOT": 0}, "tle": {"line1": "1 37392U 11016A   25358.17266715 -.00000204  00000+0  00000+0 0  9996", "line2": "2 37392   1.3523  84.9324 0003704 186.6797 211.7927  1.00272343 51533"}}, "geometry": {"type": "Point", "coordinates": [-45.04325772358694, -1.0561376804314684]}}]}